CCSDS_OMM_VERS = 2.0
CREATION_DATE  = 
ORIGINATOR     = 

OBJECT_NAME    = UNKNOWN
OBJECT_ID      = 
CENTER_NAME    = EARTH
REF_FRAME      = TEME
TIME_SYSTEM    = UTC
MEAN_ELEMENT_THEORY = SGP/SGP4

EPOCH          = 2026-01-21T19:31:56.551872
MEAN_MOTION    = 14.71693636
ECCENTRICITY   = .0067539
INCLINATION    = 66.9756
RA_OF_ASC_NODE = 56.1526
ARG_OF_PERICENTER = 206.5217
MEAN_ANOMALY   = 153.2444

EPHEMERIS_TYPE = 0
CLASSIFICATION_TYPE = U
NORAD_CAT_ID   = 81624
ELEMENT_SET_NO = 999
REV_AT_EPOCH   = 64560
BSTAR          = .17513E-2
MEAN_MOTION_DOT = .11245E-3
MEAN_MOTION_DDOT = 0

CCSDS_OMM_VERS = 2.0
CREATION_DATE  = 
ORIGINATOR     = 

OBJECT_NAME    = UNKNOWN
OBJECT_ID      = 
CENTER_NAME    = EARTH
REF_FRAME      = TEME
TIME_SYSTEM    = UTC
MEAN_ELEMENT_THEORY = SGP/SGP4

EPOCH          = 2026-01-27T10:31:20.409024
MEAN_MOTION    = 12.57249851
ECCENTRICITY   = .0977085
INCLINATION    = 65.8261
RA_OF_ASC_NODE = 38.5019
ARG_OF_PERICENTER = 59.0060
MEAN_ANOMALY   = 310.3232

EPHEMERIS_TYPE = 0
CLASSIFICATION_TYPE = U
NORAD_CAT_ID   = 81640
ELEMENT_SET_NO = 999
REV_AT_EPOCH   = 51582
BSTAR          = .50332E-3
MEAN_MOTION_DOT = .488E-5
MEAN_MOTION_DDOT = 0

CCSDS_OMM_VERS = 2.0
CREATION_DATE  = 
ORIGINATOR     = 

OBJECT_NAME    = UNKNOWN
OBJECT_ID      = 
CENTER_NAME    = EARTH
REF_FRAME      = TEME
TIME_SYSTEM    = UTC
MEAN_ELEMENT_THEORY = SGP/SGP4

EPOCH          = 2026-01-19T04:51:36.916704
MEAN_MOTION    = 13.44439879
ECCENTRICITY   = .0366475
INCLINATION    = 102.1454
RA_OF_ASC_NODE = 280.4635
ARG_OF_PERICENTER = 276.2805
MEAN_ANOMALY   = 240.6884

EPHEMERIS_TYPE = 0
CLASSIFICATION_TYPE = U
NORAD_CAT_ID   = 81652
ELEMENT_SET_NO = 999
REV_AT_EPOCH   = 58368
BSTAR          = .49642E-3
MEAN_MOTION_DOT = .369E-5
MEAN_MOTION_DDOT = 0

CCSDS_OMM_VERS = 2.0
CREATION_DATE  = 
ORIGINATOR     = 

OBJECT_NAME    = UNKNOWN
OBJECT_ID      = 
CENTER_NAME    = EARTH
REF_FRAME      = TEME
TIME_SYSTEM    = UTC
MEAN_ELEMENT_THEORY = SGP/SGP4

EPOCH          = 2026-01-26T18:29:15.068256
MEAN_MOTION    = 14.48286039
ECCENTRICITY   = .0017006
INCLINATION    = 74.0422
RA_OF_ASC_NODE = 312.2757
ARG_OF_PERICENTER = 236.2730
MEAN_ANOMALY   = 123.6810

EPHEMERIS_TYPE = 0
CLASSIFICATION_TYPE = U
NORAD_CAT_ID   = 81667
ELEMENT_SET_NO = 999
REV_AT_EPOCH   = 46316
BSTAR          = .10457E-2
MEAN_MOTION_DOT = .3889E-4
MEAN_MOTION_DDOT = 0

CCSDS_OMM_VERS = 2.0
CREATION_DATE  = 
ORIGINATOR     = 

OBJECT_NAME    = UNKNOWN
OBJECT_ID      = 
CENTER_NAME    = EARTH
REF_FRAME      = TEME
TIME_SYSTEM    = UTC
MEAN_ELEMENT_THEORY = SGP/SGP4

EPOCH          = 2026-01-25T21:18:12.222144
MEAN_MOTION    = 14.10042311
ECCENTRICITY   = .0027483
INCLINATION    = 66.8226
RA_OF_ASC_NODE = 253.0961
ARG_OF_PERICENTER = 202.6304
MEAN_ANOMALY   = 173.5383

EPHEMERIS_TYPE = 0
CLASSIFICATION_TYPE = U
NORAD_CAT_ID   = 81674
ELEMENT_SET_NO = 999
REV_AT_EPOCH   = 61994
BSTAR          = .96874E-3
MEAN_MOTION_DOT = .1638E-4
MEAN_MOTION_DDOT = 0

CCSDS_OMM_VERS = 2.0
CREATION_DATE  = 
ORIGINATOR     = 

OBJECT_NAME    = UNKNOWN
OBJECT_ID      = 
CENTER_NAME    = EARTH
REF_FRAME      = TEME
TIME_SYSTEM    = UTC
MEAN_ELEMENT_THEORY = SGP/SGP4

EPOCH          = 2026-01-24T14:01:11.404128
MEAN_MOTION    = 14.57695437
ECCENTRICITY   = .0023137
INCLINATION    = 81.2139
RA_OF_ASC_NODE = 250.1792
ARG_OF_PERICENTER = 164.9117
MEAN_ANOMALY   = 195.2776

EPHEMERIS_TYPE = 0
CLASSIFICATION_TYPE = U
NORAD_CAT_ID   = 81683
ELEMENT_SET_NO = 999
REV_AT_EPOCH   = 64210
BSTAR          = .94808E-3
MEAN_MOTION_DOT = .4356E-4
MEAN_MOTION_DDOT = 0

CCSDS_OMM_VERS = 2.0
CREATION_DATE  = 
ORIGINATOR     = 

OBJECT_NAME    = UNKNOWN
OBJECT_ID      = 
CENTER_NAME    = EARTH
REF_FRAME      = TEME
TIME_SYSTEM    = UTC
MEAN_ELEMENT_THEORY = SGP/SGP4

EPOCH          = 2026-01-19T09:42:38.184768
MEAN_MOTION    = 12.25937419
ECCENTRICITY   = .036423
INCLINATION    = 101.0955
RA_OF_ASC_NODE = 81.7032
ARG_OF_PERICENTER = 12.3158
MEAN_ANOMALY   = 348.6521

EPHEMERIS_TYPE = 0
CLASSIFICATION_TYPE = U
NORAD_CAT_ID   = 81693
ELEMENT_SET_NO = 999
REV_AT_EPOCH   = 97238
BSTAR          = .53343E-2
MEAN_MOTION_DOT = .701E-5
MEAN_MOTION_DDOT = 0

CCSDS_OMM_VERS = 2.0
CREATION_DATE  = 
ORIGINATOR     = 

OBJECT_NAME    = UNKNOWN
OBJECT_ID      = 
CENTER_NAME    = EARTH
REF_FRAME      = TEME
TIME_SYSTEM    = UTC
MEAN_ELEMENT_THEORY = SGP/SGP4

EPOCH          = 2026-01-25T11:10:07.881600
MEAN_MOTION    = 14.40603319
ECCENTRICITY   = .0004695
INCLINATION    = 71.0009
RA_OF_ASC_NODE = 291.7962
ARG_OF_PERICENTER = 181.6912
MEAN_ANOMALY   = 178.4209

EPHEMERIS_TYPE = 0
CLASSIFICATION_TYPE = U
NORAD_CAT_ID   = 81745
ELEMENT_SET_NO = 999
REV_AT_EPOCH   = 63604
BSTAR          = .98446E-3
MEAN_MOTION_DOT = .3092E-4
MEAN_MOTION_DDOT = 0

CCSDS_OMM_VERS = 2.0
CREATION_DATE  = 
ORIGINATOR     = 

OBJECT_NAME    = UNKNOWN
OBJECT_ID      = 
CENTER_NAME    = EARTH
REF_FRAME      = TEME
TIME_SYSTEM    = UTC
MEAN_ELEMENT_THEORY = SGP/SGP4

EPOCH          = 2026-01-26T20:42:23.015232
MEAN_MOTION    = 14.41585337
ECCENTRICITY   = .0016075
INCLINATION    = 82.9189
RA_OF_ASC_NODE = 186.8712
ARG_OF_PERICENTER = 112.3826
MEAN_ANOMALY   = 247.9073

EPHEMERIS_TYPE = 0
CLASSIFICATION_TYPE = U
NORAD_CAT_ID   = 81775
ELEMENT_SET_NO = 999
REV_AT_EPOCH   = 63177
BSTAR          = .37485E-2
MEAN_MOTION_DOT = .12238E-3
MEAN_MOTION_DDOT = 0

