UNKNOWN                 
1 81624U          26021.81384898  .00011245  00000+0  17513-2 0  9992
2 81624  66.9756  56.1526 0067539 206.5217 153.2444 14.71693636645600
UNKNOWN                 
1 81640U          26027.43843066  .00000488  00000+0  50332-3 0  9995
2 81640  65.8261  38.5019 0977085  59.0060 310.3232 12.57249851515820
UNKNOWN                 
1 81652U          26019.20251061  .00000369  00000+0  49642-3 0  9992
2 81652 102.1454 280.4635 0366475 276.2805 240.6884 13.44439879583684
UNKNOWN                 
1 81667U          26026.77031329  .00003889  00000+0  10457-2 0  9992
2 81667  74.0422 312.2757 0017006 236.2730 123.6810 14.48286039463169
UNKNOWN                 
1 81674U          26025.88764146  .00001638  00000+0  96874-3 0  9999
2 81674  66.8226 253.0961 0027483 202.6304 173.5383 14.10042311619941
UNKNOWN                 
1 81683U          26024.58415977  .00004356  00000+0  94808-3 0  9995
2 81683  81.2139 250.1792 0023137 164.9117 195.2776 14.57695437642104
UNKNOWN                 
1 81693U          26019.40460862  .00000701  00000+0  53343-2 0  9992
2 81693 101.0955  81.7032 0364230  12.3158 348.6521 12.25937419972380
UNKNOWN                 
1 81745U          26025.46536900  .00003092  00000+0  98446-3 0  9990
2 81745  71.0009 291.7962 0004695 181.6912 178.4209 14.40603319636043
UNKNOWN                 
1 81775U          26026.86276638  .00012238  00000+0  37485-2 0  9994
2 81775  82.9189 186.8712 0016075 112.3826 247.9073 14.41585337631779
